AMAZONAS 2              
1 35942U 09054A   22073.98700966 -.00000285  00000+0  00000+0 0  9994
2 35942   0.0332 131.9046 0002094 270.8646  64.1103  1.00270133 45590
COMSATBW-1              
1 35943U 09054B   22074.01169241  .00000021  00000+0  00000+0 0  9992
2 35943   0.0522 102.1281 0002247 268.2411 229.4288  1.00270781 45717
NSS-12                  
1 36032U 09058A   22073.98868763  .00000068  00000+0  00000+0 0  9997
2 36032   0.0389 300.1772 0002755  60.0982 225.2143  1.00273139 45329
THOR 6                  
1 36033U 09058B   22073.92726524 -.00000013  00000+0  00000+0 0  9991
2 36033   0.0098 154.7837 0001936 186.6145 164.0744  1.00271334 45410
INTELSAT 14 (IS-14)     
1 36097U 09064A   22073.99023674 -.00000277  00000+0  00000+0 0  9993
2 36097   0.0187 117.8041 0002597 246.7482 119.5043  1.00271341 45013
EUTELSAT 36B            
1 36101U 09065A   22073.93459157  .00000152  00000+0  00000+0 0  9994
2 36101   0.0697   9.3702 0005218 350.8594 184.6245  1.00274603 45121
INTELSAT 15 (IS-15)     
1 36106U 09067A   22074.01614053 -.00000188  00000+0  00000+0 0  9999
2 36106   0.0214 145.9501 0002536 218.4615 259.1480  1.00268742 25638
WGS F3 (USA 211)        
1 36108U 09068A   22074.61755757 -.00000244  00000+0  00000+0 0  9998
2 36108   0.1076  94.0572 0000238 136.5730 326.0062  0.99444593 44924
DIRECTV 12              
1 36131U 09075A   22073.97872395 -.00000107  00000+0  00000+0 0  9996
2 36131   0.0231 277.4208 0000817  43.4666 101.2874  1.00272748 30969
BEIDOU 3                
1 36287U 10001A   22074.52954794 -.00000282  00000+0  00000+0 0  9999
2 36287   1.9185  48.4783 0002613   6.0391  89.6297  1.00274910 44572
RADUGA-1M 2             
1 36358U 10002A   22074.01614053 -.00000187  00000+0  00000+0 0  9998
2 36358   0.0888 256.4662 0001545 130.7527 236.1805  1.00271002 34490
SDO                     
1 36395U 10005A   22073.63559753 -.00000062  00000+0  00000+0 0  9996
2 36395  31.4690 110.7579 0001740 248.4811 299.8015  1.00275442 44468
INTELSAT 16 (IS-16)     
1 36397U 10006A   22074.07209135 -.00000247  00000+0  00000+0 0  9999
2 36397   0.0243 145.2846 0002096 225.0169 112.1107  1.00267935 44061
GOES 15                 
1 36411U 10008A   22073.97366531  .00000051  00000+0  00000+0 0  9992
2 36411   0.0624 116.3347 0000783 258.6745  20.0937  1.00262577 44075
ECHOSTAR 14             
1 36499U 10010A   22073.97549689 -.00000003  00000+0  00000+0 0  9996
2 36499   0.0189 207.6817 0002709 145.3783  51.7648  1.00273560 30953
SES-1                   
1 36516U 10016A   22073.97907282 -.00000118  00000+0  00000+0 0  9996
2 36516   0.0497 295.9290 0002611  50.8403  77.2434  1.00272157 43446
ASTRA 3B                
1 36581U 10021A   22074.00384278  .00000133  00000+0  00000+0 0  9999
2 36581   0.0726  67.0616 0004554 268.4608 221.9205  1.00270021 43289
COMSATBW-2              
1 36582U 10021B   22074.00183675  .00000085  00000+0  00000+0 0  9994
2 36582   0.0864  96.6230 0002372 270.4917 179.3238  1.00275379 43367
BADR-5                  
1 36592U 10025A   22074.00436608  .00000141  00000+0  00000+0 0  9999
2 36592   0.0292 131.8452 0001201 253.4167 174.8762  1.00269803 37628
COMS 1                  
1 36744U 10032A   22074.04424333 -.00000348  00000+0  00000+0 0  9992
2 36744   0.8241  94.8322 0001081 275.9246 305.9469  1.00271927 35490
ARABSAT-5A              
1 36745U 10032B   22074.00523826  .00000150  00000+0  00000+0 0  9996
2 36745   0.0648  43.8508 0002976 350.8866 170.1791  1.00273459 43052
ECHOSTAR 15             
1 36792U 10034A   22073.98683523 -.00000285  00000+0  00000+0 0  9997
2 36792   0.0238 274.1398 0002188  58.4777 133.5411  1.00270172 42748
BEIDOU 5                
1 36828U 10036A   22074.48704219 -.00000162  00000+0  00000+0 0  9995
2 36828  54.1920 177.0901 0027578 182.9933  97.0134  1.00273402 42637
NILESAT 201             
1 36830U 10037A   22073.35187587 -.00000061  00000+0  00000+0 0  9995
2 36830   0.0406 172.9465 0005198 203.6135 275.0374  1.00272052 42765
RASCOM-QAF 1R           
1 36831U 10037B   22073.92796299  .00000015  00000+0  00000+0 0  9993
2 36831   0.0442 108.8046 0005437 232.3957 168.2431  1.00272794 42700
AEHF-1 (USA 214)        
1 36868U 10039A   22073.85638558  .00000024  00000+0  00000+0 0  9990
2 36868   4.2954  88.0580 0003939 329.8951  66.7469  1.00272613 38064
CHINASAT 6A (ZX 6A)     
1 37150U 10042A   22073.92935848 -.00000036  00000+0  00000+0 0  9993
2 37150   0.2071  98.9879 0004254 279.2034 138.5500  0.99703955 42375
QZS-1 (MICHIBIKI-1)     
1 37158U 10045A   22073.52202251 -.00000141  00000+0  00000+0 0  9992
2 37158  42.2317 134.7029 0749397 270.0289  97.8812  1.00281887 42149
XM-5                    
1 37185U 10053A   22073.90441411 -.00000026  00000+0  00000+0 0  9998
2 37185   0.0119 209.1984 0000558 275.4326 258.2334  1.00272365 41881
BSAT-3B                 
1 37207U 10056B   22074.02102476 -.00000354  00000+0  00000+0 0  9999
2 37207   0.0706 327.3097 0003851   3.1293 319.5742  1.00271211 36522
BEIDOU 6                
1 37210U 10057A   22074.61635634 -.00000115  00000+0  00000+0 0  9991
2 37210   1.0015  55.5953 0003497 148.0544 351.4453  1.00271525 41691
SKYTERRA 1              
1 37218U 10061A   22073.97898560 -.00000119  00000+0  00000+0 0  9995
2 37218   2.3457  28.8727 0003418 356.4273  38.4142  1.00272759 41600
ZHONGXING-20A           
1 37234U 10064A   22074.59853749 -.00000353  00000+0  00000+0 0  9995
2 37234   2.4132  89.6126 0003225 262.3979 162.9984  1.00269055 41445
HYLAS 1                 
1 37237U 10065A   22073.97767734  .00000019  00000+0  00000+0 0  9996
2 37237   1.6781  91.2092 0013717 157.9303 167.4012  0.99569879 41386
INTELSAT 17 (IS-17)     
1 37238U 10065B   22073.99980187 -.00000005  00000+0  00000+0 0  9994
2 37238   0.0243 213.7712 0002677 150.6549 234.0592  1.00271249 37640
BEIDOU 7                
1 37256U 10068A   22074.52326824 -.00000151  00000+0  00000+0 0  9991
2 37256  50.3778 290.7670 0017964 182.8761 356.4291  1.00279620 41200
EUTELSAT KA-SAT 9A      
1 37258U 10069A   22073.92918404  .00000058  00000+0  00000+0 0  9993
2 37258   0.0577 262.5271 0003377 173.2290  80.1793  1.00272782 28406
HISPASAT 30W-5          
1 37264U 10070A   22073.99320215 -.00000219  00000+0  00000+0 0  9996
2 37264   0.0331 120.6233 0003013 265.2384 114.2552  1.00272462 37593
KOREASAT 6              
1 37265U 10070B   22074.04424333 -.00000366  00000+0  00000+0 0  9993
2 37265   0.0186 122.1821 0001109 237.2388 305.1239  1.00270930 41179
BEIDOU 8                
1 37384U 11013A   22074.62720620 -.00000143  00000+0  00000+0 0  9998
2 37384  60.1605  55.1846 0019409 196.1330 256.3905  1.00280594 40081
INTELSAT NEW DAWN       
1 37392U 11016A   22073.71861388  .00000152  00000+0  00000+0 0  9995
2 37392   0.0228 139.7783 0001177 288.7165  35.2662  1.00264816 37685
YAHSAT 1A               
1 37393U 11016B   22073.77480053  .00000098  00000+0  00000+0 0  9997
2 37393   0.0113 218.6668 0000911 128.0614 157.0391  1.00271454 39969
SBIRS GEO-1 (USA 230)   
1 37481U 11019A   22074.01239015 -.00000010  00000+0  00000+0 0  9991
2 37481   1.8548  18.6158 0001824 339.4970 245.1218  1.00272192 39807
TELSTAR 14R             
1 37602U 11021A   22073.42759322 -.00000283  00000+0  00000+0 0  9993
2 37602   0.0415 324.3223 0003080  32.6238 265.9899  1.00271211 40236
GSAT-8                  
1 37605U 11022A   22073.98868763  .00000081  00000+0  00000+0 0  9993
2 37605   0.0287 114.7517 0006534 181.4476 287.3519  1.00272408 37622
ST-2                    
1 37606U 11022B   22074.01666385 -.00000215  00000+0  00000+0 0  9995
2 37606   0.0043 153.1320 0001930 222.9803 250.4827  1.00272710 39689
CHINASAT 10 (ZX 10)     
1 37677U 11026A   22074.02119918 -.00000356  00000+0  00000+0 0  9999
2 37677   0.0581 246.7111 0001494 313.1403  90.8524  1.00274657 39395
TIANLIAN 1-02           
1 37737U 11032A   22074.62218627 -.00000052  00000+0  00000+0 0  9999
2 37737   2.0898  73.7621 0080651 355.3885 134.9064  1.00272800 39132
GSAT-12                 
1 37746U 11034A   22074.00872698  .00000121  00000+0  00000+0 0  9993
2 37746   1.1398  93.6052 0009203 338.9611 151.0957  1.00272711 27908
SES-3                   
1 37748U 11035A   22073.97863674 -.00000105  00000+0  00000+0 0  9998
2 37748   0.0392 328.2453 0002906  32.8684  60.7412  1.00272140 39009
KAZSAT-2                
1 37749U 11035B   22074.01640219 -.00000201  00000+0  00000+0 0  9990
2 37749   0.0480 297.8457 0001408 121.1276 205.9819  1.00269682 37793
BEIDOU 9                
1 37763U 11038A   22074.55600351 -.00000099  00000+0  00000+0 0  9996
2 37763  54.4762 179.5711 0090468 225.9649  60.0824  1.00254687 39051
ASTRA 1N                
1 37775U 11041A   22073.78769066  .00000116  00000+0  00000+0 0  9995
2 37775   0.0598   3.6405 0005219  15.5599  95.9229  1.00273082 38800
BSAT-3C (JCSAT-110R)    
1 37776U 11041B   22074.02111197 -.00000354  00000+0  00000+0 0  9995
2 37776   0.0457 332.3357 0000138 263.3173  54.4982  1.00272463 34881
PAKSAT-1R               
1 37779U 11042A   22073.93502767  .00000150  00000+0  00000+0 0  9998
2 37779   0.0072 146.1743 0003655 254.8068 146.2231  1.00277793 38884
CHINASAT 1A (ZX 1A)     
1 37804U 11047A   22074.02503678 -.00000342  00000+0  00000+0 0  9999
2 37804   0.0631 111.4472 0001597 231.8961 328.0881  1.00269157 11762
SES-2                   
1 37809U 11049A   22073.83833142 -.00000199  00000+0  00000+0 0  9996
2 37809   0.0336 291.8274 0002934  53.2452  42.1237  1.00271748 38362
ARABSAT-5C              
1 37810U 11049B   22074.00314502  .00000120  00000+0  00000+0 0  9995
2 37810   0.0580   3.5059 0000457 181.6298   8.5410  1.00271291 38469
EUTELSAT 7 WEST A       
1 37816U 11051A   22073.92595698 -.00000063  00000+0  00000+0 0  9998
2 37816   0.0723  29.2981 0001614 179.0008 290.2549  1.00272641 38305
